{
    "links": {
        "self": "http://www.neowsapp.com/rest/v1/neo/3605566?api_key=iIulBulltgU6a56xZRHN4H3l9WmuAYTsLGpBGhQ2"
    },
    "id": "3605566",
    "neo_reference_id": "3605566",
    "name": "(2012 LP1)",
    "designation": "2012 LP1",
    "nasa_jpl_url": "http://ssd.jpl.nasa.gov/sbdb.cgi?sstr=3605566",
    "absolute_magnitude_h": 23.4,
    "estimated_diameter": {
        "kilometers": {
            "estimated_diameter_min": 0.0555334912,
            "estimated_diameter_max": 0.1241766613
        },
        "meters": {
            "estimated_diameter_min": 55.5334911581,
            "estimated_diameter_max": 124.1766612574
        },
        "miles": {
            "estimated_diameter_min": 0.0345069009,
            "estimated_diameter_max": 0.0771597762
        },
        "feet": {
            "estimated_diameter_min": 182.1964991311,
            "estimated_diameter_max": 407.4037573197
        }
    },
    "is_potentially_hazardous_asteroid": false,
    "close_approach_data": [
        {
            "close_approach_date": "2012-06-15",
            "close_approach_date_full": "2012-Jun-15 00:12",
            "epoch_date_close_approach": 1339719120000,
            "relative_velocity": {
                "kilometers_per_second": "11.7086779721",
                "kilometers_per_hour": "42151.240699438",
                "miles_per_hour": "26191.1417557147"
            },
            "miss_distance": {
                "astronomical": "0.085183576",
                "lunar": "33.136411064",
                "kilometers": "12743281.52858312",
                "miles": "7918307.965042256"
            },
            "orbiting_body": "Earth"
        }
    ],
    "orbital_data": {
        "orbit_id": "7",
        "orbit_determination_date": "2017-04-06 08:49:38",
        "first_observation_date": "2012-06-10",
        "last_observation_date": "2012-06-15",
        "data_arc_in_days": 5,
        "observations_used": 23,
        "orbit_uncertainty": "9",
        "minimum_orbit_intersection": ".0652372",
        "jupiter_tisserand_invariant": "4.402",
        "epoch_osculation": "2456090.5",
        "eccentricity": ".3299135881960388",
        "semi_major_axis": "1.509983140549148",
        "inclination": "20.00432794470924",
        "ascending_node_longitude": "76.90773549300906",
        "orbital_period": "677.7297877697506",
        "perihelion_distance": "1.011819184535055",
        "perihelion_argument": "224.5838771108483",
        "aphelion_distance": "2.008147096563241",
        "perihelion_time": "2456130.918079425950",
        "mean_anomaly": "338.5305163563427",
        "mean_motion": ".5311851515110106",
        "equinox": "J2000",
        "orbit_class": {
            "orbit_class_type": "APO",
            "orbit_class_description": "Near-Earth asteroid orbits which cross the Earth’s orbit similar to that of 1862 Apollo",
            "orbit_class_range": "a (semi-major axis) > 1.0 AU; q (perihelion) < 1.017 AU"
        }
    },
    "is_sentry_object": false
}